218P/LINEAR,e,2.7251,176.0033,59.7257,3.095652,0.1809572,0.62201432,250.0385,02/04.0/2019,2000,g 16.0,4.0
# From MPC 10028
219P/LINEAR,e,11.5294,231.0218,107.3530,3.652597,0.1411892,0.35288688,100.7219,02/04.0/2019,2000,g 11.0,4.0
# From MPC105242
220P/McNaught,e,8.1276,150.1112,180.5838,3.114513,0.1793159,0.50156548,238.8024,02/04.0/2019,2000,g 15.0,4.0
# From MPC 93589
221P/LINEAR,e,11.4282,229.7476,39.9613,3.459294,0.1531873,0.49266178,199.4982,02/04.0/2019,2000,g 14.5,4.0
# From MPC 92277
222P/LINEAR,e,5.0943,6.8174,346.2105,2.899160,0.1996622,0.71427912,335.8313,02/04.0/2019,2000,g 20.0,4.0
# From MPC112394
223P/Skiff,e,27.0141,346.7928,37.8249,4.158015,0.1162452,0.41537613,0.8983,02/04.0/2019,2000,g 12.0,4.0
# From MPC 75727
224P/LINEAR-NEAT,e,13.3959,40.4813,16.8083,3.426918,0.1553633,0.41244821,153.3243,02/04.0/2019,2000,g 15.5,4.0
# From MPC 75727
225P/LINEAR,e,21.3347,14.1834,3.8990,3.652400,0.1412006,0.63718417,127.2824,02/04.0/2019,2000,g 18.0,4.0
# From MPC106349
226P/Pigott-LINEAR-Kowalski,e,44.0043,54.0063,341.1067,3.768590,0.1347211,0.52821874,118.8756,02/04.0/2019,2000,g 12.5,4.0
# From MPC102956
227P/Catalina-LINEAR,e,6.5224,49.7687,90.1025,3.581836,0.1453937,0.50248695,86.0205,02/04.0/2019,2000,g 16.5,2.0
# From MPC107687
228P/LINEAR,e,7.9098,31.0046,115.3038,4.176301,0.1154826,0.17735974,313.7198,02/04.0/2019,2000,g 14.5,2.0
# From MPC106349
229P/Gibbs,e,26.0722,157.8951,224.0693,3.933954,0.1263165,0.37601423,78.8857,02/04.0/2019,2000,g 13.0,4.0
# From MPC110497
230P/LINEAR,e,15.2148,107.9069,313.4193,3.415516,0.1561420,0.56137521,183.6609,02/04.0/2019,2000,g 13.0,4.0
# From MPC102102
231P/LINEAR-NEAT,e,12.3336,133.0285,42.7321,4.017747,0.1223856,0.24771001,344.0704,02/04.0/2019,2000,g 14.5,2.0
# From MPC112394
232P/Hill,e,14.6306,56.0306,53.5520,4.486606,0.1037115,0.33479300,353.6111,02/04.0/2019,2000,g 11.5,4.0
# From MPC 92986
233P/La Sagra,e,11.2843,74.9269,27.0982,3.029423,0.1869236,0.41152460,246.7511,02/04.0/2019,2000,g 15.0,4.0
# From MPC110497
234P/LINEAR,e,11.5157,179.6163,357.6508,3.808088,0.1326305,0.25364616,81.4953,02/04.0/2019,2000,g 12.0,4.0
# From MPC110497
235P/LINEAR,e,8.8967,204.4323,333.8337,3.998397,0.1232750,0.31684954,39.8341,02/04.0/2019,2000,g 12.0,4.0
# From MPC107688
236P/LINEAR,e,16.3340,245.6710,119.2348,3.733072,0.1366484,0.50793733,60.2449,02/04.0/2019,2000,g 14.0,4.0
# From MPC109593
237P/LINEAR,e,14.0251,245.4226,25.1146,3.512001,0.1497518,0.43477650,126.5400,02/04.0/2019,2000,g 14.5,2.0
# From MPC107688
238P/Read,e,1.2646,51.6434,324.8037,3.163138,0.1751971,0.25231658,146.2787,02/04.0/2019,2000,g 14.5,4.0
# From MPC112394
239P/LINEAR,e,11.3056,255.9084,220.3789,4.470394,0.1042762,0.63102248,2.5902,02/04.0/2019,2000,g 17.5,2.0
# From MPC109593
240P/NEAT,e,23.5042,74.9269,352.0755,3.871139,0.1294035,0.44883110,34.1867,02/04.0/2019,2000,g 11.0,4.0
# From MPC 75729
241P/LINEAR,e,20.9155,305.6502,110.5732,4.961296,0.0891890,0.60908156,279.4468,02/04.0/2019,2000,g 13.5,4.0
# From MPC 81861
242P/Spahr,e,32.4852,180.5871,246.4596,5.474893,0.0769379,0.27759218,193.2347,02/04.0/2019,2000,g  8.0,4.0
# From MPC111774
243P/NEAT,e,7.6416,87.6579,283.5536,3.831436,0.1314201,0.35940131,21.2896,02/04.0/2019,2000,g 12.5,4.0
# From MPC 88331
244P/Scotti,e,2.2584,354.0022,92.8435,4.896403,0.0909679,0.19754661,234.2619,02/04.0/2019,2000,g  9.0,4.0
# From MPC111774
245P/WISE,e,21.1983,316.6748,316.7045,4.039432,0.1214014,0.45778168,43.7394,02/04.0/2019,2000,g 14.0,4.0
# From MPC 93589
246P/NEAT,e,15.9871,78.7512,176.1198,4.018560,0.1223484,0.28674935,268.3406,02/04.0/2019,2000,g 10.5,4.0
# From MPC112394
247P/LINEAR,e,13.6615,54.0105,47.4497,3.970582,0.1245727,0.62497576,7.9597,02/04.0/2019,2000,g 16.5,2.0
# From MPC 75730
248P/Gibbs,e,6.3481,207.7582,210.0107,5.987752,0.0672680,0.63777813,197.1082,02/04.0/2019,2000,g 14.0,4.0
# From MPC105243
249P/LINEAR,e,8.3969,239.1912,65.5770,2.761985,0.2147198,0.81993688,250.1603,02/04.0/2019,2000,g 15.5,4.0
# From MPC110497
250P/Larson,e,13.2912,73.6778,45.1741,3.732937,0.1366558,0.40690511,50.0953,02/04.0/2019,2000,g 14.5,4.0
# From MPC104795
251P/LINEAR,e,23.4193,219.4075,31.1983,3.507981,0.1500093,0.50588435,85.1172,02/04.0/2019,2000,g 16.5,2.0
# From MPC102956
252P/LINEAR,e,10.4179,190.9541,343.3449,3.048173,0.1852016,0.67244345,195.5836,02/04.0/2019,2000,g 17.5,4.0
# From MPC112394
253P/PANSTARRS,e,4.9405,146.8774,230.7135,3.469602,0.1525052,0.41302399,41.5281,02/04.0/2019,2000,g 14.5,4.0
# From MPC 81473
254P/McNaught,e,32.4936,129.2686,219.2386,4.628087,0.0989924,0.32213462,300.3450,02/04.0/2019,2000,g 11.0,4.0
# From NK 2214
255P/Levy,e,18.4039,279.4428,179.8835,3.036570,0.1862641,0.66988309,119.3546,02/04.0/2019,2000,g 20.0,4.0
# From MPC 84027
256P/LINEAR,e,27.6395,81.3479,124.3206,4.634568,0.0987848,0.41911398,212.2071,02/04.0/2019,2000,g 14.0,2.0
# From MPC 88332
257P/Catalina,e,20.2368,207.7839,117.7745,3.759499,0.1352101,0.43071386,280.8786,02/04.0/2019,2000,g 11.5,4.0
# From MPC 79655
258P/PANSTARRS,e,6.7444,126.2523,26.1296,4.404442,0.1066271,0.20964141,306.5129,02/04.0/2019,2000,g 13.0,4.0
# From MPC106349
259P/Garradd,e,15.8890,51.4818,257.5173,2.731920,0.2182741,0.33799219,119.8009,02/04.0/2019,2000,g 15.5,4.0
# From MPC102102
260P/McNaught,e,15.0509,349.3685,18.3554,3.622983,0.1429238,0.60891443,328.8532,02/04.0/2019,2000,g 13.5,4.0
# From MPC102102
261P/Larson,e,6.0760,291.1668,67.1003,3.487786,0.1513141,0.42271711,339.6281,02/04.0/2019,2000,g 14.0,4.0
# From MPC 82322
262P/McNaught-Russell,e,29.1192,217.9362,171.0157,6.881053,0.0546036,0.81440194,123.2488,02/04.0/2019,2000,g 13.5,4.0
# From MPC 82323
263P/Gibbs,e,11.5420,105.8063,34.5465,3.059454,0.1841782,0.58798246,90.6259,02/04.0/2019,2000,g 18.0,4.0
# From MPC102102
264P/Larsen,e,25.1506,220.9031,346.6183,3.893756,0.1282776,0.37372669,336.6633,02/04.0/2019,2000,g 13.0,4.0
# From MPC 79870
265P/LINEAR,e,14.3777,343.3172,33.3303,4.241900,0.1128141,0.64876670,276.9866,02/04.0/2019,2000,g 14.5,4.0
# From MPC 90771
266P/Christensen,e,3.4272,5.0088,97.9173,3.533817,0.1483673,0.33937084,294.6251,02/04.0/2019,2000,g 12.5,4.0
# From MPC 81862
267P/LONEOS,e,6.1380,228.6890,114.0797,3.212353,0.1711863,0.61365335,33.6687,02/04.0/2019,2000,g 19.5,4.0
# From MPC 92277
268P/Bernardi,e,16.1109,127.5915,0.2202,4.556582,0.1013317,0.46964437,139.8357,02/04.0/2019,2000,g 14.0,4.0
# From MPC104795
269P/Jedicke,e,7.0729,241.7035,226.0756,7.086228,0.0522494,0.43212549,82.6513,02/04.0/2019,2000,g 10.0,4.0
# From MPC 88332
270P/Gehrels,e,2.9166,222.9584,210.0599,6.673666,0.0571686,0.46706191,118.0253,02/04.0/2019,2000,g  8.0,4.0
# From MPC 92277
271P/van Houten-Lemmon,e,6.8592,9.2899,36.6440,7.056982,0.0525745,0.39255395,106.9842,02/04.0/2019,2000,g 11.0,4.0
# From MPC 81862
272P/NEAT,e,18.0782,109.4743,28.0752,4.450894,0.1049623,0.45442597,227.7879,02/04.0/2019,2000,g 16.0,2.0
# From MPC 82723
273P/Pons-Gambart,e,136.6258,320.3995,20.2314,31.58463,0.0055525,0.97406932,0.0000,12/16.6642/2012,2000,g 11.5,4.0
# From MPC 88332
274P/Tombaugh-Tenagra,e,15.8179,81.3371,38.5937,4.368178,0.1079577,0.43865817,234.7449,02/04.0/2019,2000,g 13.0,4.0
# From MPC 81862
275P/Hermann,e,21.3127,348.7474,174.1389,5.768726,0.0711351,0.71330009,158.6865,02/04.0/2019,2000,g 15.0,4.0
# From MPC 84935
276P/Vorobjov,e,14.8768,211.6039,200.4846,5.297492,0.0808348,0.26948004,186.3024,02/04.0/2019,2000,g 11.5,4.0
# From MPC105243
277P/LINEAR,e,16.7736,276.3385,152.1812,3.855691,0.1301820,0.50482850,269.4740,02/04.0/2019,2000,g 14.0,4.0
# From MPC105243
278P/McNaught,e,6.6839,15.4621,238.0052,3.694814,0.1387762,0.43482754,278.6849,02/04.0/2019,2000,g 14.0,4.0
# From MPC 10028
279P/La Sagra,e,5.0482,346.2250,5.7768,3.577700,0.1456459,0.39727977,136.1161,02/04.0/2019,2000,g 14.0,4.0
# From MPC 89013
280P/Larsen,e,11.7710,131.4248,104.7344,4.528401,0.1022791,0.41847292,192.1796,02/04.0/2019,2000,g 12.5,4.0
# From MPC 83145
281P/MOSS,e,4.7198,87.1714,27.1338,4.866010,0.0918215,0.17151658,225.6959,02/04.0/2019,2000,g 11.0,4.0
# From unp
282P/,e,5.8088,9.3275,217.3029,4.247767,0.1125805,0.18954337,248.3587,02/04.0/2019,2000,g 13.5,2.0
# From MPC 84027
283P/Spacewatch,e,14.4572,161.1711,22.2823,4.138091,0.1170857,0.48550455,249.1508,02/04.0/2019,2000,g 16.0,2.0
# From MPC 93589
284P/McNaught,e,11.8591,144.2901,202.7457,3.672860,0.1400224,0.37567741,226.5647,02/04.0/2019,2000,g 13.0,4.0
# From MPC 85339
285P/LINEAR,e,25.0123,185.4752,178.4266,4.509381,0.1029269,0.61749173,211.8008,02/04.0/2019,2000,g 15.0,4.0
# From MPC 90771
286P/Christensen,e,17.0430,283.9574,24.6875,4.113963,0.1181173,0.42461561,218.9855,02/04.0/2019,2000,g 14.0,4.0
# From MPC 96868
287P/Christensen,e,16.3117,139.0309,188.8012,4.171158,0.1156962,0.26976455,173.4252,02/04.0/2019,2000,g 13.5,4.0
# From unp
288P/,e,3.2403,83.1872,280.8657,3.047375,0.1852743,0.20119454,151.6190,02/04.0/2019,2000,g 16.0,2.0
# From MPC102102
289P/Blanpain,e,5.8978,68.9281,9.8322,3.045433,0.1854515,0.68503185,300.6559,02/04.0/2019,2000,g 10.0,4.0
# From MPC 95214
290P/Jager,e,19.1664,303.2698,180.9222,6.130857,0.0649265,0.64769329,116.2123,02/04.0/2019,2000,g 10.5,4.0
# From MPC 89314
291P/NEAT,e,6.3847,238.3504,174.7694,4.480908,0.1039095,0.44179092,198.5299,02/04.0/2019,2000,g 13.0,4.0
# From MPC110085
292P/Li,e,24.2521,91.0017,319.5533,6.114823,0.0651821,0.58717855,119.3054,02/04.0/2019,2000,g 12.5,4.0
# From MPC 92278
293P/Spacewatch,e,9.0573,78.4097,41.1635,3.641000,0.1418643,0.41818177,262.8925,02/04.0/2019,2000,g 14.5,4.0
# From MPC 89013
294P/LINEAR,e,18.2134,312.6038,235.5194,3.205501,0.1717355,0.59429846,308.7026,02/04.0/2019,2000,g 15.5,4.0
# From MPC 93589
295P/LINEAR,e,21.0848,7.4856,73.0031,5.307273,0.0806115,0.61636059,139.4820,02/04.0/2019,2000,g 12.0,4.0
# From MPC 92278
296P/Garradd,e,25.2347,263.6410,350.0610,3.498525,0.1506179,0.47848253,270.8598,02/04.0/2019,2000,g 14.0,4.0
# From MPC102956
297P/Beshore,e,10.3279,97.6610,132.3816,3.444951,0.1541450,0.31949532,249.2587,02/04.0/2019,2000,g 15.0,4.0
# From MPC105243
